{"norad_cat_id":"68835","object_name":"PRSC-E03","object_id":"2026-092A","object_type":"PAYLOAD","country_code":"PRC","epoch":"2026-05-30T05:26:59.339616","creation_date":"2026-05-30T07:26:56","launch_date":"2026-04-25","decay_date":null,"inclination":37.9997,"eccentricity":0.000528,"mean_motion":15.06580451,"period":95.581,"semimajor_axis":6924.796,"apoapsis":550.317,"periapsis":543.004,"tle_line0":"0 PRSC-E03","tle_line1":"1 68835U 26092A   26150.22707569  .00002935  00000-0  20162-3 0  9994","tle_line2":"2 68835  37.9997 195.5821 0005280 248.1099 111.9101 15.06580451  5245","fetched_at":"2026-05-30T16:18:06.042337+00:00"}
{"norad_cat_id":"56943","object_name":"NUSAT-40 (C SHOEMAKER)","object_id":"2023-084M","object_type":"PAYLOAD","country_code":"ARGN","epoch":"2026-05-30T05:26:55.609728","creation_date":"2026-05-30T07:36:53","launch_date":"2023-06-12","decay_date":null,"inclination":97.4847,"eccentricity":0.0002862,"mean_motion":15.72484296,"period":91.575,"semimajor_axis":6729.936,"apoapsis":353.728,"periapsis":349.875,"tle_line0":"0 NUSAT-40 (C SHOEMAKER)","tle_line1":"1 56943U 23084M   26150.22703252  .00110340  00000-0  82048-3 0  9995","tle_line2":"2 56943  97.4847 295.3573 0002862 285.1436  74.9510 15.72484296165982","fetched_at":"2026-05-30T16:18:06.042337+00:00"}
{"norad_cat_id":"37179","object_name":"SHIJIAN 6 04A (SJ-6 04A)","object_id":"2010-051A","object_type":"PAYLOAD","country_code":"PRC","epoch":"2026-05-30T05:26:26.647584","creation_date":"2026-05-30T07:26:56","launch_date":"2010-10-06","decay_date":null,"inclination":97.8287,"eccentricity":0.0016745,"mean_motion":15.17750751,"period":94.877,"semimajor_axis":6890.777,"apoapsis":524.181,"periapsis":501.104,"tle_line0":"0 SHIJIAN 6 04A (SJ-6 04A)","tle_line1":"1 37179U 10051A   26150.22669731  .00008183  00000-0  40740-3 0  9992","tle_line2":"2 37179  97.8287 172.8026 0016745 289.1167  70.8252 15.17750751854227","fetched_at":"2026-05-30T16:18:06.042337+00:00"}
{"norad_cat_id":"27939","object_name":"MOZHAYETS 4","object_id":"2003-042A","object_type":"PAYLOAD","country_code":"CIS","epoch":"2026-05-30T05:26:15.990144","creation_date":"2026-05-30T07:36:53","launch_date":"2003-09-27","decay_date":null,"inclination":98.3465,"eccentricity":0.0010635,"mean_motion":14.73431107,"period":97.731,"semimajor_axis":7028.273,"apoapsis":657.613,"periapsis":642.663,"tle_line0":"0 MOZHAYETS 4","tle_line1":"1 27939U 03042A   26150.22657396  .00001183  00000-0  19055-3 0  9999","tle_line2":"2 27939  98.3465 334.0789 0010635 332.0252 143.2762 14.73431107212903","fetched_at":"2026-05-30T16:18:06.042337+00:00"}
{"norad_cat_id":"43276","object_name":"YAOGAN-31 B","object_id":"2018-034B","object_type":"PAYLOAD","country_code":"PRC","epoch":"2026-05-30T05:26:07.618848","creation_date":"2026-05-30T07:26:56","launch_date":"2018-04-10","decay_date":null,"inclination":63.3923,"eccentricity":0.0273883,"mean_motion":13.45455844,"period":107.027,"semimajor_axis":7467.161,"apoapsis":1293.539,"periapsis":884.514,"tle_line0":"0 YAOGAN-31 B","tle_line1":"1 43276U 18034B   26150.22647707  .00000031  00000-0  16373-3 0  9994","tle_line2":"2 43276  63.3923 137.5006 0273883   7.2979 353.1909 13.45455844399809","fetched_at":"2026-05-30T16:18:06.042337+00:00"}
{"norad_cat_id":"51951","object_name":"OBJECT F","object_id":"2022-023F","object_type":"UNKNOWN","country_code":"PRC","epoch":"2026-05-30T05:25:24.048192","creation_date":"2026-05-30T07:36:53","launch_date":"2022-03-05","decay_date":null,"inclination":63.4458,"eccentricity":0.0128503,"mean_motion":15.17924434,"period":94.866,"semimajor_axis":6890.251,"apoapsis":600.658,"periapsis":423.575,"tle_line0":"0 OBJECT F","tle_line1":"1 51951U 22023F   26150.22597278  .00025056  00000-0  99499-3 0  9997","tle_line2":"2 51951  63.4458 334.5432 0128503 343.4757  16.2184 15.17924434234987","fetched_at":"2026-05-30T16:18:06.042337+00:00"}
{"norad_cat_id":"58665","object_name":"MDQUBESAT-2","object_id":"2023-185P","object_type":"PAYLOAD","country_code":"ARGN","epoch":"2026-05-30T05:25:04.416384","creation_date":"2026-05-30T09:56:16","launch_date":"2023-12-01","decay_date":null,"inclination":97.5244,"eccentricity":0.0013056,"mean_motion":16.02996189,"period":89.832,"semimajor_axis":6644.264,"apoapsis":274.803,"periapsis":257.454,"tle_line0":"0 MDQUBESAT-2","tle_line1":"1 58665U 23185P   26150.22574556  .01361127  10724-2  22744-2 0  9997","tle_line2":"2 58665  97.5244 244.0780 0013056 267.4181  92.5604 16.02996189135109","fetched_at":"2026-05-30T16:18:06.042337+00:00"}
{"norad_cat_id":"44543","object_name":"BEIDOU 3M24","object_id":"2019-061B","object_type":"PAYLOAD","country_code":"PRC","epoch":"2026-05-30T05:24:52.055136","creation_date":"2026-05-30T07:26:56","launch_date":"2019-09-22","decay_date":null,"inclination":54.3939,"eccentricity":0.0005478,"mean_motion":1.8622769,"period":773.247,"semimajor_axis":27906.519,"apoapsis":21543.671,"periapsis":21513.097,"tle_line0":"0 BEIDOU 3M24","tle_line1":"1 44543U 19061B   26150.22560249  .00000086  00000-0  00000+0 0  9994","tle_line2":"2 44543  54.3939 183.3017 0005478 339.5596  92.8380  1.86227690 45462","fetched_at":"2026-05-30T16:18:06.042337+00:00"}
{"norad_cat_id":"52202","object_name":"COSMOS 2554","object_id":"2022-036A","object_type":"PAYLOAD","country_code":"CIS","epoch":"2026-05-30T05:24:50.758272","creation_date":"2026-05-30T07:36:53","launch_date":"2022-04-07","decay_date":null,"inclination":67.1486,"eccentricity":0.0005715,"mean_motion":13.96678609,"period":103.102,"semimajor_axis":7283.456,"apoapsis":909.484,"periapsis":901.159,"tle_line0":"0 COSMOS 2554","tle_line1":"1 52202U 22036A   26150.22558748 -.00000057  00000-0  13174-4 0  9992","tle_line2":"2 52202  67.1486 272.3520 0005715 258.5975 101.4467 13.96678609211445","fetched_at":"2026-05-30T16:18:06.042337+00:00"}
{"norad_cat_id":"40109","object_name":"YAOGAN 20A","object_id":"2014-047A","object_type":"PAYLOAD","country_code":"PRC","epoch":"2026-05-30T05:24:47.626272","creation_date":"2026-05-30T07:26:56","launch_date":"2014-08-09","decay_date":null,"inclination":63.3798,"eccentricity":0.038865,"mean_motion":13.45440312,"period":107.028,"semimajor_axis":7467.219,"apoapsis":1379.297,"periapsis":798.87,"tle_line0":"0 YAOGAN 20A","tle_line1":"1 40109U 14047A   26150.22555123 -.00000021  00000-0  74947-4 0  9998","tle_line2":"2 40109  63.3798  65.4573 0388650  14.5786 346.6079 13.45440312580020","fetched_at":"2026-05-30T16:18:06.042337+00:00"}
{"norad_cat_id":"61869","object_name":"OBJECT A","object_id":"2024-203A","object_type":"UNKNOWN","country_code":"PRC","epoch":"2026-05-30T05:24:44.538336","creation_date":"2026-05-30T07:36:53","launch_date":"2024-11-09","decay_date":null,"inclination":97.4208,"eccentricity":0.0012143,"mean_motion":15.29519515,"period":94.147,"semimajor_axis":6855.385,"apoapsis":485.574,"periapsis":468.925,"tle_line0":"0 OBJECT A","tle_line1":"1 61869U 24203A   26150.22551549  .00019940  00000-0  69693-3 0  9997","tle_line2":"2 61869  97.4208 220.5554 0012143  39.0474 321.1641 15.29519515 86211","fetched_at":"2026-05-30T16:18:06.042337+00:00"}
{"norad_cat_id":"43262","object_name":"GAOFEN 1-04","object_id":"2018-031D","object_type":"PAYLOAD","country_code":"PRC","epoch":"2026-05-30T05:24:36.092736","creation_date":"2026-05-30T07:26:56","launch_date":"2018-03-31","decay_date":null,"inclination":98.0541,"eccentricity":0.0002167,"mean_motion":14.76451121,"period":97.531,"semimajor_axis":7018.686,"apoapsis":642.072,"periapsis":639.03,"tle_line0":"0 GAOFEN 1-04","tle_line1":"1 43262U 18031D   26150.22541774  .00001225  00000-0  18355-3 0  9991","tle_line2":"2 43262  98.0541 212.8501 0002167 104.6903 255.4546 14.76451121440038","fetched_at":"2026-05-30T16:18:06.042337+00:00"}
{"norad_cat_id":"43275","object_name":"YAOGAN-31 A","object_id":"2018-034A","object_type":"PAYLOAD","country_code":"PRC","epoch":"2026-05-30T05:24:29.388960","creation_date":"2026-05-30T07:26:56","launch_date":"2018-04-10","decay_date":null,"inclination":63.3919,"eccentricity":0.0273865,"mean_motion":13.45459938,"period":107.027,"semimajor_axis":7467.146,"apoapsis":1293.51,"periapsis":884.512,"tle_line0":"0 YAOGAN-31 A","tle_line1":"1 43275U 18034A   26150.22534015  .00000032  00000-0  16525-3 0  9990","tle_line2":"2 43275  63.3919 137.4977 0273865   7.3420 353.1492 13.45459938399682","fetched_at":"2026-05-30T16:18:06.042337+00:00"}
{"norad_cat_id":"60015","object_name":"OBJECT D","object_id":"2024-110D","object_type":"UNKNOWN","country_code":"PRC","epoch":"2026-05-30T05:24:26.098848","creation_date":"2026-05-30T07:36:53","launch_date":"2024-06-06","decay_date":null,"inclination":97.5739,"eccentricity":0.0008661,"mean_motion":15.24020344,"period":94.487,"semimajor_axis":6871.866,"apoapsis":499.682,"periapsis":487.779,"tle_line0":"0 OBJECT D","tle_line1":"1 60015U 24110D   26150.22530207  .00006121  00000-0  25535-3 0  9998","tle_line2":"2 60015  97.5739 247.2838 0008661 321.6246  38.4374 15.24020344109524","fetched_at":"2026-05-30T16:18:06.042337+00:00"}
{"norad_cat_id":"58821","object_name":"OBJECT B","object_id":"2024-016B","object_type":"UNKNOWN","country_code":"PRC","epoch":"2026-05-30T05:24:04.209408","creation_date":"2026-05-30T07:36:53","launch_date":"2024-01-23","decay_date":null,"inclination":97.447,"eccentricity":0.0004705,"mean_motion":15.69212587,"period":91.766,"semimajor_axis":6739.288,"apoapsis":364.323,"periapsis":357.982,"tle_line0":"0 OBJECT B","tle_line1":"1 58821U 24016B   26150.22504872  .00133388  00000-0  11326-2 0  9992","tle_line2":"2 58821  97.4470 246.0246 0004705 145.3155 214.8414 15.69212587131354","fetched_at":"2026-05-30T16:18:06.042337+00:00"}
